{
    "links": {
        "self": "http://www.neowsapp.com/rest/v1/neo/3753583?api_key=iIulBulltgU6a56xZRHN4H3l9WmuAYTsLGpBGhQ2"
    },
    "id": "3753583",
    "neo_reference_id": "3753583",
    "name": "(2016 JM38)",
    "designation": "2016 JM38",
    "nasa_jpl_url": "http://ssd.jpl.nasa.gov/sbdb.cgi?sstr=3753583",
    "absolute_magnitude_h": 24.922,
    "estimated_diameter": {
        "kilometers": {
            "estimated_diameter_min": 0.0275521172,
            "estimated_diameter_max": 0.0616084069
        },
        "meters": {
            "estimated_diameter_min": 27.5521171649,
            "estimated_diameter_max": 61.6084069047
        },
        "miles": {
            "estimated_diameter_min": 0.0171200866,
            "estimated_diameter_max": 0.0382816774
        },
        "feet": {
            "estimated_diameter_min": 90.3940880792,
            "estimated_diameter_max": 202.1273257092
        }
    },
    "is_potentially_hazardous_asteroid": false,
    "close_approach_data": [
        {
            "close_approach_date": "2016-04-22",
            "close_approach_date_full": "2016-Apr-22 14:46",
            "epoch_date_close_approach": 1461336360000,
            "relative_velocity": {
                "kilometers_per_second": "21.8706713042",
                "kilometers_per_hour": "78734.4166952366",
                "miles_per_hour": "48922.5046404375"
            },
            "miss_distance": {
                "astronomical": "0.074596601",
                "lunar": "29.018077789",
                "kilometers": "11159492.61883987",
                "miles": "6934187.170815406"
            },
            "orbiting_body": "Earth"
        }
    ],
    "orbital_data": {
        "orbit_id": "3",
        "orbit_determination_date": "2017-04-06 08:25:49",
        "first_observation_date": "2016-05-03",
        "last_observation_date": "2016-05-04",
        "data_arc_in_days": 1,
        "observations_used": 8,
        "orbit_uncertainty": "9",
        "minimum_orbit_intersection": ".0718778",
        "jupiter_tisserand_invariant": "4.063",
        "epoch_osculation": "2457512.5",
        "eccentricity": ".6642980570150154",
        "semi_major_axis": "1.582403378659326",
        "inclination": "19.92315931701294",
        "ascending_node_longitude": "43.87962266020405",
        "orbital_period": "727.0666580916052",
        "perihelion_distance": ".53121588880194",
        "perihelion_argument": "66.4389397872278",
        "aphelion_distance": "2.633590868516712",
        "perihelion_time": "2457448.214132573069",
        "mean_anomaly": "31.83052339993195",
        "mean_motion": ".4951402955884721",
        "equinox": "J2000",
        "orbit_class": {
            "orbit_class_type": "APO",
            "orbit_class_description": "Near-Earth asteroid orbits which cross the Earth’s orbit similar to that of 1862 Apollo",
            "orbit_class_range": "a (semi-major axis) > 1.0 AU; q (perihelion) < 1.017 AU"
        }
    },
    "is_sentry_object": false
}